*******************************************************************************
Revised: Sep 12, 1996           Earth Barycenter                              3
 
 Dynamical point:
 ---------------
 The common point about which the Earth and Moon revolve (center of mass). This
 is approximately 4671 km from the center of the Earth, or about 3/4 of the way 
 to the surface. See 399 for Earth center, or 301 for Moon center ephemeris.

*******************************************************************************
 
 
*******************************************************************************
Ephemeris / WWW_USER Mon Jun 24 14:27:34 2013 Pasadena, USA      / Horizons    
*******************************************************************************
Target body name: Earth-Moon Barycenter (3)       {source: DE405}
Center body name: Solar System Barycenter (0)     {source: DE405}
Center-site name: BODY CENTER
*******************************************************************************
Start time      : A.D. 2027-Oct-04 00:00:00.0000 CT 
Stop  time      : A.D. 2027-Oct-07 00:00:00.0000 CT 
Step-size       : 60 minutes
*******************************************************************************
Center geodetic : 0.00000000,0.00000000,0.0000000 {E-lon(deg),Lat(deg),Alt(km)}
Center cylindric: 0.00000000,0.00000000,0.0000000 {E-lon(deg),Dxy(km),Dz(km)}
Center radii    : (undefined)                                                  
Output units    : KM-S                                                         
Output format   : 01
Reference frame : ICRF/J2000.0                                                 
Output type     : GEOMETRIC cartesian states
Coordinate systm: Ecliptic and Mean Equinox of Reference Epoch                 
*******************************************************************************
JDCT 
   X     Y     Z
*******************************************************************************
$$SOE
2461685.083333333 = A.D. 2027-Oct-06 14:00:00.0000 (CT)
   1.459860266181130E+08  3.234841454972064E+07  5.100314446487906E+03
2461685.125000000 = A.D. 2027-Oct-06 15:00:00.0000 (CT)
   1.459606731009851E+08  3.245264536508731E+07  5.093280636101482E+03
2461685.166666667 = A.D. 2027-Oct-06 16:00:00.0000 (CT)
   1.459352445927797E+08  3.255685921210766E+07  5.086248358479220E+03
2461685.208333333 = A.D. 2027-Oct-06 17:00:00.0000 (CT)
   1.459097411038872E+08  3.266105603661390E+07  5.079217617011753E+03
2461685.250000000 = A.D. 2027-Oct-06 18:00:00.0000 (CT)
   1.458841626447379E+08  3.276523578444313E+07  5.072188415089611E+03
2461685.291666667 = A.D. 2027-Oct-06 19:00:00.0000 (CT)
   1.458585092258011E+08  3.286939840143731E+07  5.065160756106407E+03
2461685.333333333 = A.D. 2027-Oct-06 20:00:00.0000 (CT)
   1.458327808575853E+08  3.297354383344338E+07  5.058134643451189E+03
2461685.375000000 = A.D. 2027-Oct-06 21:00:00.0000 (CT)
   1.458069775506389E+08  3.307767202631322E+07  5.051110080516881E+03
2461685.416666667 = A.D. 2027-Oct-06 22:00:00.0000 (CT)
   1.457810993155491E+08  3.318178292590370E+07  5.044087070696961E+03
2461685.458333333 = A.D. 2027-Oct-06 23:00:00.0000 (CT)
   1.457551461629427E+08  3.328587647807669E+07  5.037065617375547E+03
2461685.500000000 = A.D. 2027-Oct-07 00:00:00.0000 (CT)
   1.457291181034858E+08  3.338995262869914E+07  5.030045723948131E+03
